{
    "links": {
        "self": "http://www.neowsapp.com/rest/v1/neo/3333576?api_key=iIulBulltgU6a56xZRHN4H3l9WmuAYTsLGpBGhQ2"
    },
    "id": "3333576",
    "neo_reference_id": "3333576",
    "name": "(2006 KB1)",
    "designation": "2006 KB1",
    "nasa_jpl_url": "http://ssd.jpl.nasa.gov/sbdb.cgi?sstr=3333576",
    "absolute_magnitude_h": 24.4,
    "estimated_diameter": {
        "kilometers": {
            "estimated_diameter_min": 0.0350392641,
            "estimated_diameter_max": 0.0783501764
        },
        "meters": {
            "estimated_diameter_min": 35.0392641108,
            "estimated_diameter_max": 78.3501764334
        },
        "miles": {
            "estimated_diameter_min": 0.0217723826,
            "estimated_diameter_max": 0.0486845275
        },
        "feet": {
            "estimated_diameter_min": 114.9582192654,
            "estimated_diameter_max": 257.0543928497
        }
    },
    "is_potentially_hazardous_asteroid": false,
    "close_approach_data": [
        {
            "close_approach_date": "2006-05-17",
            "close_approach_date_full": "2006-May-17 22:51",
            "epoch_date_close_approach": 1147906260000,
            "relative_velocity": {
                "kilometers_per_second": "16.5067681967",
                "kilometers_per_hour": "59424.3655082046",
                "miles_per_hour": "36923.9897792508"
            },
            "miss_distance": {
                "astronomical": "0.0074573459",
                "lunar": "2.9009075551",
                "kilometers": "1115603.062493233",
                "miles": "693203.5987552954"
            },
            "orbiting_body": "Earth"
        },
        {
            "close_approach_date": "2006-05-18",
            "close_approach_date_full": "2006-May-18 02:40",
            "epoch_date_close_approach": 1147920000000,
            "relative_velocity": {
                "kilometers_per_second": "17.2901945232",
                "kilometers_per_hour": "62244.7002836899",
                "miles_per_hour": "38676.4361290517"
            },
            "miss_distance": {
                "astronomical": "0.0087100368",
                "lunar": "3.3882043152",
                "kilometers": "1303002.952901616",
                "miles": "809648.4910336608"
            },
            "orbiting_body": "Moon"
        },
        {
            "close_approach_date": "2081-11-29",
            "close_approach_date_full": "2081-Nov-29 00:30",
            "epoch_date_close_approach": 3531601800000,
            "relative_velocity": {
                "kilometers_per_second": "10.2565581272",
                "kilometers_per_hour": "36923.609257749",
                "miles_per_hour": "22942.8948746274"
            },
            "miss_distance": {
                "astronomical": "1.9803380056",
                "lunar": "770.3514841784",
                "kilometers": "296254347.517808072",
                "miles": "184083915.4629805136"
            },
            "orbiting_body": "Juptr"
        }
    ],
    "orbital_data": {
        "orbit_id": "11",
        "orbit_determination_date": "2017-04-06 09:08:37",
        "first_observation_date": "2006-05-20",
        "last_observation_date": "2006-05-26",
        "data_arc_in_days": 6,
        "observations_used": 93,
        "orbit_uncertainty": "7",
        "minimum_orbit_intersection": ".00497419",
        "jupiter_tisserand_invariant": "3.117",
        "epoch_osculation": "2459000.5",
        "eccentricity": ".6838911650989885",
        "semi_major_axis": "2.461967368195581",
        "inclination": ".3775396369205133",
        "ascending_node_longitude": "161.2260246582847",
        "orbital_period": "1410.983273288699",
        "perihelion_distance": ".7782496363246146",
        "perihelion_argument": "10.21824350355907",
        "aphelion_distance": "4.145685100066546",
        "perihelion_time": "2459468.605992378565",
        "mean_anomaly": "240.5668639405598",
        "mean_motion": ".2551412244320355",
        "equinox": "J2000",
        "orbit_class": {
            "orbit_class_type": "APO",
            "orbit_class_description": "Near-Earth asteroid orbits which cross the Earth’s orbit similar to that of 1862 Apollo",
            "orbit_class_range": "a (semi-major axis) > 1.0 AU; q (perihelion) < 1.017 AU"
        }
    },
    "is_sentry_object": false
}